OBJECT_NAME,OBJECT_ID,EPOCH,MEAN_MOTION,ECCENTRICITY,INCLINATION,RA_OF_ASC_NODE,ARG_OF_PERICENTER,MEAN_ANOMALY,EPHEMERIS_TYPE,CLASSIFICATION_TYPE,NORAD_CAT_ID,ELEMENT_SET_NO,REV_AT_EPOCH,BSTAR,MEAN_MOTION_DOT,MEAN_MOTION_DDOT
GEOSCAN 3 (RS92S3),2025-155T,2026-07-23T14:38:15.213984,15.36543636,.00081073,97.4555,174.9475,65.9788,294.2304,0,U,64893,999,8644,.53886892E-3,.19182E-3,0
INNOSAT 3 (RS92S0),2025-155U,2026-07-23T13:54:09.392832,15.46346741,.00076178,97.4498,177.0201,72.4076,287.8005,0,U,64894,999,8658,.91037865E-3,.4509E-3,0
KNACKSAT-2,1998-067XZ,2026-07-23T06:03:19.332576,15.63087127,.00074539,51.6273,112.6377,354.3723,5.7186,0,U,67683,999,2591,.59135592E-3,.5483E-3,0
