GEOSCAN-3 (RS92S3)
1 64893U 25155T   26204.60989831  .00019182  00000-0  53887-3 0  9991
2 64893  97.4555 174.9475 0008107  65.9788 294.2304 15.36543636 86441
INNOSAT3 (RS92S0)
1 64894U 25155U   26204.57927538  .00045090  00000-0  91038-3 0  9991
2 64894  97.4498 177.0201 0007618  72.4076 287.8005 15.46346741 86588
KNACKSAT-2
1 67683U 98067XZ  26204.25230709  .00054830  00000-0  59136-3 0  9999
2 67683  51.6273 112.6377 0007454 354.3723   5.7186 15.63087127 25914
